[{"OBJECT_NAME":"SAUDISAT 5A","OBJECT_ID":"2018-102A","EPOCH":"2026-03-09T23:40:00.596928","MEAN_MOTION":15.26941021,"ECCENTRICITY":0.00113651,"INCLINATION":97.3185,"RA_OF_ASC_NODE":132.4981,"ARG_OF_PERICENTER":121.7113,"MEAN_ANOMALY":238.5235,"EPHEMERIS_TYPE":0,"CLASSIFICATION_TYPE":"U","NORAD_CAT_ID":43831,"ELEMENT_SET_NO":999,"REV_AT_EPOCH":40053,"BSTAR":0.00030305233,"MEAN_MOTION_DOT":7.96e-5,"MEAN_MOTION_DDOT":0},{"OBJECT_NAME":"STARLINK-31498","OBJECT_ID":"2024-045M","EPOCH":"2026-03-09T11:09:16.350048","MEAN_MOTION":15.27588531,"ECCENTRICITY":0.0001469,"INCLINATION":43.0039,"RA_OF_ASC_NODE":94.0981,"ARG_OF_PERICENTER":266.7296,"MEAN_ANOMALY":93.3388,"EPHEMERIS_TYPE":0,"CLASSIFICATION_TYPE":"U","NORAD_CAT_ID":59189,"ELEMENT_SET_NO":999,"REV_AT_EPOCH":11312,"BSTAR":-0.00013097925,"MEAN_MOTION_DOT":-3.866e-5,"MEAN_MOTION_DDOT":0}]
